{"type": "FeatureCollection", "features": [ {"type": "Feature", "properties": {"norad_id": 66879, "name": "STARLINK-35749", "group": "last-30-days", "lat": 51.580085613323384, "lon": 102.19090620378405, "alt_km": 339.243050449616, "timestamp": "2025-12-21T05:44:50.292436+00:00", "meta": {"OBJECT_NAME": "STARLINK-35749", "OBJECT_ID": "2025-283B", "EPOCH": "2025-12-20T22:00:01.999584", "MEAN_MOTION": 15.74204651, "ECCENTRICITY": 0.00012587, "INCLINATION": 53.1581, "RA_OF_ASC_NODE": 32.8287, "ARG_OF_PERICENTER": 93.9774, "MEAN_ANOMALY": 314.0666, "EPHEMERIS_TYPE": 0, "CLASSIFICATION_TYPE": "U", "NORAD_CAT_ID": 66879, "ELEMENT_SET_NO": 999, "REV_AT_EPOCH": 374, "BSTAR": -0.00041017049, "MEAN_MOTION_DOT": -0.00060313, "MEAN_MOTION_DDOT": 0}, "tle": {"line1": "1 66879U 25283B   25354.91668981 -.00060313  00000+0 -41017-3 0  9993", "line2": "2 66879  53.1581  32.8287 0001258  93.9774 314.0666 15.74204651  3741"}}, "geometry": {"type": "Point", "coordinates": [102.19090620378405, 51.580085613323384]}}, {"type": "Feature", "properties": {"norad_id": 66880, "name": "STARLINK-35844", "group": "last-30-days", "lat": 51.04681261975097, "lon": 99.27212415597593, "alt_km": 339.60506662185435, "timestamp": "2025-12-21T05:44:50.292446+00:00", "meta": {"OBJECT_NAME": "STARLINK-35844", "OBJECT_ID": "2025-283C", "EPOCH": "2025-12-20T22:00:01.999584", "MEAN_MOTION": 15.7414775, "ECCENTRICITY": 9.858e-05, "INCLINATION": 53.1581, "RA_OF_ASC_NODE": 32.8329, "ARG_OF_PERICENTER": 87.1699, "MEAN_ANOMALY": 319.0309, "EPHEMERIS_TYPE": 0, "CLASSIFICATION_TYPE": "U", "NORAD_CAT_ID": 66880, "ELEMENT_SET_NO": 999, "REV_AT_EPOCH": 374, "BSTAR": -0.00027590346, "MEAN_MOTION_DOT": -0.00040768, "MEAN_MOTION_DDOT": 0}, "tle": {"line1": "1 66880U 25283C   25354.91668981 -.00040768  00000+0 -27590-3 0  9997", "line2": "2 66880  53.1581  32.8329 0000985  87.1699 319.0309 15.74147750  3742"}}, "geometry": {"type": "Point", "coordinates": [99.27212415597593, 51.04681261975097]}}, {"type": "Feature", "properties": {"norad_id": 66881, "name": "STARLINK-35860", "group": "last-30-days", "lat": 52.043861177371085, "lon": 105.20720061964785, "alt_km": 339.1807681849332, "timestamp": "2025-12-21T05:44:50.292456+00:00", "meta": {"OBJECT_NAME": "STARLINK-35860", "OBJECT_ID": "2025-283D", "EPOCH": "2025-12-20T22:00:01.999584", "MEAN_MOTION": 15.7420617, "ECCENTRICITY": 0.00012206, "INCLINATION": 53.1582, "RA_OF_ASC_NODE": 32.824, "ARG_OF_PERICENTER": 97.0686, "MEAN_ANOMALY": 312.8899, "EPHEMERIS_TYPE": 0, "CLASSIFICATION_TYPE": "U", "NORAD_CAT_ID": 66881, "ELEMENT_SET_NO": 999, "REV_AT_EPOCH": 374, "BSTAR": -0.00031776092, "MEAN_MOTION_DOT": -0.00046942, "MEAN_MOTION_DDOT": 0}, "tle": {"line1": "1 66881U 25283D   25354.91668981 -.00046942  00000+0 -31776-3 0  9999", "line2": "2 66881  53.1582  32.8240 0001220  97.0686 312.8899 15.74206170  3742"}}, "geometry": {"type": "Point", "coordinates": [105.20720061964785, 52.043861177371085]}}, {"type": "Feature", "properties": {"norad_id": 66882, "name": "STARLINK-35912", "group": "last-30-days", "lat": 52.428028073998554, "lon": 108.27774029500188, "alt_km": 339.30859426342795, "timestamp": "2025-12-21T05:44:50.292468+00:00", "meta": {"OBJECT_NAME": "STARLINK-35912", "OBJECT_ID": "2025-283E", "EPOCH": "2025-12-20T22:00:01.999584", "MEAN_MOTION": 15.74203805, "ECCENTRICITY": 9.441e-05, "INCLINATION": 53.1581, "RA_OF_ASC_NODE": 32.8213, "ARG_OF_PERICENTER": 90.9119, "MEAN_ANOMALY": 320.9682, "EPHEMERIS_TYPE": 0, "CLASSIFICATION_TYPE": "U", "NORAD_CAT_ID": 66882, "ELEMENT_SET_NO": 999, "REV_AT_EPOCH": 374, "BSTAR": -0.00038427164, "MEAN_MOTION_DOT": -0.00056565, "MEAN_MOTION_DDOT": 0}, "tle": {"line1": "1 66882U 25283E   25354.91668981 -.00056565  00000+0 -38427-3 0  9992", "line2": "2 66882  53.1581  32.8213 0000944  90.9119 320.9682 15.74203805  3749"}}, "geometry": {"type": "Point", "coordinates": [108.27774029500188, 52.428028073998554]}}, {"type": "Feature", "properties": {"norad_id": 66883, "name": "STARLINK-35947", "group": "last-30-days", "lat": 52.73144817930989, "lon": 111.39413906990079, "alt_km": 339.11010662719036, "timestamp": "2025-12-21T05:44:50.292480+00:00", "meta": {"OBJECT_NAME": "STARLINK-35947", "OBJECT_ID": "2025-283F", "EPOCH": "2025-12-20T22:00:01.999584", "MEAN_MOTION": 15.7421185, "ECCENTRICITY": 0.00011427, "INCLINATION": 53.1583, "RA_OF_ASC_NODE": 32.8171, "ARG_OF_PERICENTER": 88.0563, "MEAN_ANOMALY": 325.7319, "EPHEMERIS_TYPE": 0, "CLASSIFICATION_TYPE": "U", "NORAD_CAT_ID": 66883, "ELEMENT_SET_NO": 999, "REV_AT_EPOCH": 379, "BSTAR": -0.0004027069, "MEAN_MOTION_DOT": -0.00059252, "MEAN_MOTION_DDOT": 0}, "tle": {"line1": "1 66883U 25283F   25354.91668981 -.00059252  00000+0 -40271-3 0  9999", "line2": "2 66883  53.1583  32.8171 0001142  88.0563 325.7319 15.74211850  3791"}}, "geometry": {"type": "Point", "coordinates": [111.39413906990079, 52.73144817930989]}}, {"type": "Feature", "properties": {"norad_id": 66884, "name": "STARLINK-36057", "group": "last-30-days", "lat": 53.08699947779226, "lon": 117.71759888554573, "alt_km": 339.1508514088164, "timestamp": "2025-12-21T05:44:50.292493+00:00", "meta": {"OBJECT_NAME": "STARLINK-36057", "OBJECT_ID": "2025-283G", "EPOCH": "2025-12-20T22:00:01.999584", "MEAN_MOTION": 15.74189827, "ECCENTRICITY": 0.00010574, "INCLINATION": 53.1581, "RA_OF_ASC_NODE": 32.8086, "ARG_OF_PERICENTER": 92.6461, "MEAN_ANOMALY": 324.9887, "EPHEMERIS_TYPE": 0, "CLASSIFICATION_TYPE": "U", "NORAD_CAT_ID": 66884, "ELEMENT_SET_NO": 999, "REV_AT_EPOCH": 374, "BSTAR": -0.00028001922, "MEAN_MOTION_DOT": -0.00041438, "MEAN_MOTION_DDOT": 0}, "tle": {"line1": "1 66884U 25283G   25354.91668981 -.00041438  00000+0 -28002-3 0  9995", "line2": "2 66884  53.1581  32.8086 0001057  92.6461 324.9887 15.74189827  3742"}}, "geometry": {"type": "Point", "coordinates": [117.71759888554573, 53.08699947779226]}}, {"type": "Feature", "properties": {"norad_id": 66885, "name": "STARLINK-35954", "group": "last-30-days", "lat": 52.951766588369516, "lon": 114.55400089595881, "alt_km": 339.24319408617066, "timestamp": "2025-12-21T05:44:50.292503+00:00", "meta": {"OBJECT_NAME": "STARLINK-35954", "OBJECT_ID": "2025-283H", "EPOCH": "2025-12-20T22:00:01.999584", "MEAN_MOTION": 15.7421704, "ECCENTRICITY": 9.418e-05, "INCLINATION": 53.158, "RA_OF_ASC_NODE": 32.8124, "ARG_OF_PERICENTER": 94.463, "MEAN_ANOMALY": 321.2482, "EPHEMERIS_TYPE": 0, "CLASSIFICATION_TYPE": "U", "NORAD_CAT_ID": 66885, "ELEMENT_SET_NO": 999, "REV_AT_EPOCH": 374, "BSTAR": -0.00054036951, "MEAN_MOTION_DOT": -0.00079123, "MEAN_MOTION_DDOT": 0}, "tle": {"line1": "1 66885U 25283H   25354.91668981 -.00079123  00000+0 -54037-3 0  9995", "line2": "2 66885  53.1580  32.8124 0000941  94.4630 321.2482 15.74217040  3744"}}, "geometry": {"type": "Point", "coordinates": [114.55400089595881, 52.951766588369516]}}, {"type": "Feature", "properties": {"norad_id": 66886, "name": "STARLINK-35900", "group": "last-30-days", "lat": 53.13748819818481, "lon": 120.9199171860485, "alt_km": 339.17931229378974, "timestamp": "2025-12-21T05:44:50.292513+00:00", "meta": {"OBJECT_NAME": "STARLINK-35900", "OBJECT_ID": "2025-283J", "EPOCH": "2025-12-20T22:00:01.999584", "MEAN_MOTION": 15.74182853, "ECCENTRICITY": 0.00010123, "INCLINATION": 53.1579, "RA_OF_ASC_NODE": 32.8044, "ARG_OF_PERICENTER": 80.5845, "MEAN_ANOMALY": 338.9738, "EPHEMERIS_TYPE": 0, "CLASSIFICATION_TYPE": "U", "NORAD_CAT_ID": 66886, "ELEMENT_SET_NO": 999, "REV_AT_EPOCH": 374, "BSTAR": -0.00021081268, "MEAN_MOTION_DOT": -0.00031379, "MEAN_MOTION_DDOT": 0}, "tle": {"line1": "1 66886U 25283J   25354.91668981 -.00031379  00000+0 -21081-3 0  9990", "line2": "2 66886  53.1579  32.8044 0001012  80.5845 338.9738 15.74182853  3740"}}, "geometry": {"type": "Point", "coordinates": [120.9199171860485, 53.13748819818481]}}, {"type": "Feature", "properties": {"norad_id": 66887, "name": "STARLINK-35925", "group": "last-30-days", "lat": 53.101953210015495, "lon": 124.11946326195189, "alt_km": 339.4215832767368, "timestamp": "2025-12-21T05:44:50.292523+00:00", "meta": {"OBJECT_NAME": "STARLINK-35925", "OBJECT_ID": "2025-283K", "EPOCH": "2025-12-20T22:00:01.999584", "MEAN_MOTION": 15.74190236, "ECCENTRICITY": 6.521e-05, "INCLINATION": 53.1578, "RA_OF_ASC_NODE": 32.8004, "ARG_OF_PERICENTER": 81.5379, "MEAN_ANOMALY": 339.9356, "EPHEMERIS_TYPE": 0, "CLASSIFICATION_TYPE": "U", "NORAD_CAT_ID": 66887, "ELEMENT_SET_NO": 999, "REV_AT_EPOCH": 374, "BSTAR": -0.00027798133, "MEAN_MOTION_DOT": -0.00041142, "MEAN_MOTION_DDOT": 0}, "tle": {"line1": "1 66887U 25283K   25354.91668981 -.00041142  00000+0 -27798-3 0  9991", "line2": "2 66887  53.1578  32.8004 0000652  81.5379 339.9356 15.74190236  3749"}}, "geometry": {"type": "Point", "coordinates": [124.11946326195189, 53.101953210015495]}}, {"type": "Feature", "properties": {"norad_id": 66888, "name": "STARLINK-35919", "group": "last-30-days", "lat": 52.98099393787889, "lon": 127.3006999808859, "alt_km": 339.26624612947853, "timestamp": "2025-12-21T05:44:50.292533+00:00", "meta": {"OBJECT_NAME": "STARLINK-35919", "OBJECT_ID": "2025-283L", "EPOCH": "2025-12-20T22:00:01.999584", "MEAN_MOTION": 15.74189244, "ECCENTRICITY": 9.038e-05, "INCLINATION": 53.1577, "RA_OF_ASC_NODE": 32.7961, "ARG_OF_PERICENTER": 90.8268, "MEAN_ANOMALY": 332.5645, "EPHEMERIS_TYPE": 0, "CLASSIFICATION_TYPE": "U", "NORAD_CAT_ID": 66888, "ELEMENT_SET_NO": 999, "REV_AT_EPOCH": 374, "BSTAR": -0.00027760243, "MEAN_MOTION_DOT": -0.00041086, "MEAN_MOTION_DDOT": 0}, "tle": {"line1": "1 66888U 25283L   25354.91668981 -.00041086  00000+0 -27760-3 0  9998", "line2": "2 66888  53.1577  32.7961 0000903  90.8268 332.5645 15.74189244  3746"}}, "geometry": {"type": "Point", "coordinates": [127.3006999808859, 52.98099393787889]}}]}